XRISM                   
1 57800U 23137A   26089.83682370  .00007737  00000+0  43674-3 0  9998
2 57800  31.0017 146.8569 0007933 251.8412 108.1362 15.11749390140992
ACS3                    
1 59588U 24077B   26089.80375392  .00023459  00000+0  18406-1 0  9999
2 59588  97.1961  26.1699 0072920  28.5612 331.9518 13.90585211 97132
SZ-21 MODULE            
1 66515U 25246C   26089.30993578  .00048483  00000+0  38893-3 0  9991
2 66515  41.4738  76.2734 0002020 214.1142 145.9571 15.70166693 21313
